start=new Date('2022-06-05T00:00:00.000Z').valueOf();
sats=[{"SEMIMAJOR_AXIS":"6925.359","CENTER_NAME":"EARTH","DECAY_DATE":null,"EPOCH":"2022-06-04T16:41:32.686080","TLE_LINE1":"1 44732U 19074V   22155.69551720  .00000056  00000-0  22638-4 0  9997","MEAN_ELEMENT_THEORY":"SGP4","ECCENTRICITY":"0.00015510","ARG_OF_PERICENTER":"63.0154","INCLINATION":"53.0555","LAUNCH_DATE":"2019-11-11","BSTAR":"0.00002263800000","PERIAPSIS":"546.150","OBJECT_ID":"2019-074V","MEAN_ANOMALY":"297.0993","CLASSIFICATION_TYPE":"U","APOAPSIS":"548.298","REF_FRAME":"TEME","GP_ID":"205383760","EPHEMERIS_TYPE":"0","MEAN_MOTION_DOT":"0.00000056","TIME_SYSTEM":"UTC","NORAD_CAT_ID":"44732","REV_AT_EPOCH":"14137","ELEMENT_SET_NO":"999","OBJECT_NAME":"STARLINK-1027","PERIOD":"95.592","MEAN_MOTION_DDOT":"0.0000000000000","MEAN_MOTION":"15.06396662","FILE":"3481313","COUNTRY_CODE":"US","OBJECT_TYPE":"PAYLOAD","TLE_LINE2":"2 44732  53.0555 254.7118 0001551  63.0154 297.0993 15.06396662141373","RA_OF_ASC_NODE":"254.7118","SITE":"AFETR","RCS_SIZE":"LARGE"},{"MEAN_MOTION_DOT":"0.00000532","EPHEMERIS_TYPE":"0","TIME_SYSTEM":"UTC","NORAD_CAT_ID":"44733","ELEMENT_SET_NO":"999","REV_AT_EPOCH":"14163","MEAN_MOTION_DDOT":"0.0000000000000","PERIOD":"95.592","OBJECT_NAME":"STARLINK-1028","MEAN_MOTION":"15.06400255","TLE_LINE2":"2 44733  53.0536 235.3204 0001748  48.0997 312.0141 15.06400255141636","OBJECT_TYPE":"PAYLOAD","FILE":"3481313","COUNTRY_CODE":"US","RA_OF_ASC_NODE":"235.3204","SITE":"AFETR","RCS_SIZE":"LARGE","CENTER_NAME":"EARTH","SEMIMAJOR_AXIS":"6925.348","EPOCH":"2022-06-04T13:27:47.988576","DECAY_DATE":null,"TLE_LINE1":"1 44733U 19074W   22155.56097209  .00000532  00000-0  54587-4 0  9998","MEAN_ELEMENT_THEORY":"SGP4","ARG_OF_PERICENTER":"48.0997","INCLINATION":"53.0536","ECCENTRICITY":"0.00017480","BSTAR":"0.00005458700000","LAUNCH_DATE":"2019-11-11","PERIAPSIS":"546.002","OBJECT_ID":"2019-074W","CLASSIFICATION_TYPE":"U","MEAN_ANOMALY":"312.0141","APOAPSIS":"548.423","REF_FRAME":"TEME","GP_ID":"205382514"},{"REF_FRAME":"TEME","GP_ID":"205383265","MEAN_ANOMALY":"305.8675","CLASSIFICATION_TYPE":"U","APOAPSIS":"548.409","OBJECT_ID":"2019-074X","LAUNCH_DATE":"2019-11-11","BSTAR":"0.00006531000000","PERIAPSIS":"546.031","MEAN_ELEMENT_THEORY":"SGP4","ECCENTRICITY":"0.00017170","INCLINATION":"53.0539","ARG_OF_PERICENTER":"54.2474","TLE_LINE1":"1 44734U 19074X   22155.70843990  .00000691  00000-0  65310-4 0  9993","SEMIMAJOR_AXIS":"6925.355","CENTER_NAME":"EARTH","DECAY_DATE":null,"EPOCH":"2022-06-04T17:00:09.207360","RCS_SIZE":"LARGE","SITE":"AFETR","RA_OF_ASC_NODE":"154.6661","FILE":"3481313","COUNTRY_CODE":"US","OBJECT_TYPE":"PAYLOAD","TLE_LINE2":"2 44734  53.0539 154.6661 0001717  54.2474 305.8675 15.06397817142750","PERIOD":"95.592","MEAN_MOTION_DDOT":"0.0000000000000","OBJECT_NAME":"STARLINK-1029","MEAN_MOTION":"15.06397817","REV_AT_EPOCH":"14275","ELEMENT_SET_NO":"999","TIME_SYSTEM":"UTC","NORAD_CAT_ID":"44734","EPHEMERIS_TYPE":"0","MEAN_MOTION_DOT":"0.00000691"},{"REV_AT_EPOCH":"14138","ELEMENT_SET_NO":"999","MEAN_MOTION":"15.06390459","PERIOD":"95.593","MEAN_MOTION_DDOT":"0.0000000000000","OBJECT_NAME":"STARLINK-1030","EPHEMERIS_TYPE":"0","MEAN_MOTION_DOT":"-0.00001225","TIME_SYSTEM":"UTC","NORAD_CAT_ID":"44735","SITE":"AFETR","RCS_SIZE":"LARGE","COUNTRY_CODE":"US","FILE":"3481313","TLE_LINE2":"2 44735  53.0566 254.3859 0001556  55.2060 304.9075 15.06390459141388","OBJECT_TYPE":"PAYLOAD","RA_OF_ASC_NODE":"254.3859","MEAN_ELEMENT_THEORY":"SGP4","ECCENTRICITY":"0.00015560","ARG_OF_PERICENTER":"55.2060","INCLINATION":"53.0566","LAUNCH_DATE":"2019-11-11","BSTAR":"-0.00006339500000","PERIAPSIS":"546.165","SEMIMAJOR_AXIS":"6925.378","CENTER_NAME":"EARTH","DECAY_DATE":null,"EPOCH":"2022-06-04T18:27:43.013376","TLE_LINE1":"1 44735U 19074Y   22155.76924784 -.00001225  00000-0 -63395-4 0  9998","REF_FRAME":"TEME","GP_ID":"205383513","OBJECT_ID":"2019-074Y","MEAN_ANOMALY":"304.9075","CLASSIFICATION_TYPE":"U","APOAPSIS":"548.320"},{"EPHEMERIS_TYPE":"0","MEAN_MOTION_DOT":"0.00000183","TIME_SYSTEM":"UTC","NORAD_CAT_ID":"44736","REV_AT_EPOCH":"14137","ELEMENT_SET_NO":"999","MEAN_MOTION":"15.06394801","PERIOD":"95.592","MEAN_MOTION_DDOT":"0.0000000000000","OBJECT_NAME":"STARLINK-1031","FILE":"3481313","COUNTRY_CODE":"US","OBJECT_TYPE":"PAYLOAD","TLE_LINE2":"2 44736  53.0542 254.9276 0001487  66.2562 293.8583 15.06394801141378","RA_OF_ASC_NODE":"254.9276","SITE":"AFETR","RCS_SIZE":"LARGE","SEMIMAJOR_AXIS":"6925.364","CENTER_NAME":"EARTH","DECAY_DATE":null,"EPOCH":"2022-06-04T15:37:51.449952","TLE_LINE1":"1 44736U 19074Z   22155.65128993  .00000183  00000-0  31161-4 0  9991","MEAN_ELEMENT_THEORY":"SGP4","ECCENTRICITY":"0.00014870","ARG_OF_PERICENTER":"66.2562","INCLINATION":"53.0542","LAUNCH_DATE":"2019-11-11","BSTAR":"0.00003116100000","PERIAPSIS":"546.200","OBJECT_ID":"2019-074Z","MEAN_ANOMALY":"293.8583","CLASSIFICATION_TYPE":"U","APOAPSIS":"548.259","REF_FRAME":"TEME","GP_ID":"205384261"},{"GP_ID":"205383015","REF_FRAME":"TEME","APOAPSIS":"548.347","MEAN_ANOMALY":"301.9995","CLASSIFICATION_TYPE":"U","OBJECT_ID":"2019-074AA","PERIAPSIS":"546.078","LAUNCH_DATE":"2019-11-11","BSTAR":"0.00018978000000","ECCENTRICITY":"0.00016380","INCLINATION":"53.0539","ARG_OF_PERICENTER":"58.1153","MEAN_ELEMENT_THEORY":"SGP4","TLE_LINE1":"1 44737U 19074AA  22155.66234494  .00002546  00000-0  18978-3 0  9992","DECAY_DATE":null,"EPOCH":"2022-06-04T15:53:46.602816","SEMIMAJOR_AXIS":"6925.348","CENTER_NAME":"EARTH","RCS_SIZE":"LARGE","SITE":"AFETR","RA_OF_ASC_NODE":"254.8772","COUNTRY_CODE":"US","FILE":"3481313","TLE_LINE2":"2 44737  53.0539 254.8772 0001638  58.1153 301.9995 15.06400257141370","OBJECT_TYPE":"PAYLOAD","PERIOD":"95.592","OBJECT_NAME":"STARLINK-1032","MEAN_MOTION_DDOT":"0.0000000000000","MEAN_MOTION":"15.06400257","REV_AT_EPOCH":"14137","ELEMENT_SET_NO":"999","NORAD_CAT_ID":"44737","TIME_SYSTEM":"UTC","EPHEMERIS_TYPE":"0","MEAN_MOTION_DOT":"0.00002546"},{"RCS_SIZE":"LARGE","SITE":"AFETR","RA_OF_ASC_NODE":"254.9410","OBJECT_TYPE":"PAYLOAD","TLE_LINE2":"2 44738  53.0552 254.9410 0001553  53.6184 306.4948 15.06394721141361","COUNTRY_CODE":"US","FILE":"3481313","PERIOD":"95.592","MEAN_MOTION_DDOT":"0.0000000000000","OBJECT_NAME":"STARLINK-1033","MEAN_MOTION":"15.06394721","ELEMENT_SET_NO":"999","REV_AT_EPOCH":"14136","NORAD_CAT_ID":"44738","TIME_SYSTEM":"UTC","MEAN_MOTION_DOT":"-0.00000528","EPHEMERIS_TYPE":"0","GP_ID":"205382765","REF_FRAME":"TEME","APOAPSIS":"548.305","CLASSIFICATION_TYPE":"U","MEAN_ANOMALY":"306.4948","OBJECT_ID":"2019-074AB","PERIAPSIS":"546.154","BSTAR":"-0.00001651900000","LAUNCH_DATE":"2019-11-11","ARG_OF_PERICENTER":"53.6184","INCLINATION":"53.0552","ECCENTRICITY":"0.00015530","MEAN_ELEMENT_THEORY":"SGP4","TLE_LINE1":"1 44738U 19074AB  22155.64760242 -.00000528  00000-0 -16519-4 0  9996","EPOCH":"2022-06-04T15:32:32.849088","DECAY_DATE":null,"CENTER_NAME":"EARTH","SEMIMAJOR_AXIS":"6925.365"},{"ELEMENT_SET_NO":"999","REV_AT_EPOCH":"14145","PERIOD":"95.097","MEAN_MOTION_DDOT":"0.0000000000000","OBJECT_NAME":"STARLINK-1034","MEAN_MOTION":"15.14240923","MEAN_MOTION_DOT":"0.00009415","EPHEMERIS_TYPE":"0","TIME_SYSTEM":"UTC","NORAD_CAT_ID":"44739","SITE":"AFETR","RCS_SIZE":"LARGE","OBJECT_TYPE":"PAYLOAD","TLE_LINE2":"2 44739  52.9961 245.4344 0001514 344.8202  15.2744 15.14240923141450","FILE":"3481313","COUNTRY_CODE":"US","RA_OF_ASC_NODE":"245.4344","MEAN_ELEMENT_THEORY":"SGP4","INCLINATION":"52.9961","ARG_OF_PERICENTER":"344.8202","ECCENTRICITY":"0.00015140","BSTAR":"0.00052487000000","LAUNCH_DATE":"2019-11-11","PERIAPSIS":"522.241","CENTER_NAME":"EARTH","SEMIMAJOR_AXIS":"6901.421","EPOCH":"2022-06-04T14:47:26.540160","DECAY_DATE":null,"TLE_LINE1":"1 44739U 19074AC  22155.61627940  .00009415  00000-0  52487-3 0  9996","REF_FRAME":"TEME","GP_ID":"205384014","OBJECT_ID":"2019-074AC","CLASSIFICATION_TYPE":"U","MEAN_ANOMALY":"15.2744","APOAPSIS":"524.331"},{"EPOCH":"2022-06-04T15:48:27.938880","DECAY_DATE":null,"CENTER_NAME":"EARTH","SEMIMAJOR_AXIS":"6925.338","TLE_LINE1":"1 44740U 19074AD  22155.65865670  .00000769  00000-0  70533-4 0  9992","ARG_OF_PERICENTER":"57.3231","INCLINATION":"53.0553","ECCENTRICITY":"0.00015390","MEAN_ELEMENT_THEORY":"SGP4","PERIAPSIS":"546.137","BSTAR":"0.00007053300000","LAUNCH_DATE":"2019-11-11","OBJECT_ID":"2019-074AD","APOAPSIS":"548.269","CLASSIFICATION_TYPE":"U","MEAN_ANOMALY":"302.7907","GP_ID":"205383761","REF_FRAME":"TEME","MEAN_MOTION_DOT":"0.00000769","EPHEMERIS_TYPE":"0","NORAD_CAT_ID":"44740","TIME_SYSTEM":"UTC","ELEMENT_SET_NO":"999","REV_AT_EPOCH":"14137","MEAN_MOTION_DDOT":"0.0000000000000","PERIOD":"95.592","OBJECT_NAME":"STARLINK-1035","MEAN_MOTION":"15.06403464","TLE_LINE2":"2 44740  53.0553 254.8907 0001539  57.3231 302.7907 15.06403464141373","OBJECT_TYPE":"PAYLOAD","FILE":"3481313","COUNTRY_CODE":"US","RA_OF_ASC_NODE":"254.8907","SITE":"AFETR","RCS_SIZE":"LARGE"},{"REV_AT_EPOCH":"14137","ELEMENT_SET_NO":"999","PERIOD":"95.592","MEAN_MOTION":"15.06400360","MEAN_MOTION_DDOT":"0.0000000000000","OBJECT_NAME":"STARLINK-1036","EPHEMERIS_TYPE":"0","MEAN_MOTION_DOT":"0.00001660","NORAD_CAT_ID":"44741","TIME_SYSTEM":"UTC","SITE":"AFETR","RCS_SIZE":"LARGE","COUNTRY_CODE":"US","FILE":"3481313","OBJECT_TYPE":"PAYLOAD","TLE_LINE2":"2 44741  53.0544 254.8303 0001433  69.6239 290.4904 15.06400360141373","RA_OF_ASC_NODE":"254.8303","ECCENTRICITY":"0.00014330","INCLINATION":"53.0544","ARG_OF_PERICENTER":"69.6239","MEAN_ELEMENT_THEORY":"SGP4","PERIAPSIS":"546.220","LAUNCH_DATE":"2019-11-11","BSTAR":"0.00013028000000","DECAY_DATE":null,"EPOCH":"2022-06-04T16:04:23.656800","SEMIMAJOR_AXIS":"6925.347","CENTER_NAME":"EARTH","TLE_LINE1":"1 44741U 19074AE  22155.66971825  .00001660  00000-0  13028-3 0  9990","GP_ID":"205382515","REF_FRAME":"TEME","OBJECT_ID":"2019-074AE","APOAPSIS":"548.205","MEAN_ANOMALY":"290.4904","CLASSIFICATION_TYPE":"U"}];
